STARLINK-30929          
1 58386U 23178N   26068.09487404  .00001554  00000+0  64590-4 0  9991
2 58386  53.1622   4.1069 0000984  85.6529 274.4584 15.30190660129778
COSMOS 2588             
1 64095U 25109A   26068.81179522  .00009169  00000+0  32611-3 0  9998
2 64095  72.9704  73.5401 0005019 308.6780  51.3966 15.29122656 44425
